{
  "type": "FeatureCollection",
  "features": [
    {
      "type": "Feature",
      "properties": {
        "norad_id": 41581,
        "name": "INTELSAT 31 (IS-31)",
        "group": "intelsat",
        "lat": 0.026395596912201415,
        "lon": 54.1298014270348,
        "alt_km": 35793.341110098845,
        "timestamp": "2025-12-21T03:56:50.522238+00:00",
        "meta_object_name": "INTELSAT 31 (IS-31)",
        "meta_object_id": "2016-035A",
        "meta_epoch": "2025-12-20T14:29:23.871264",
        "meta_mean_motion": 1.00271704,
        "meta_eccentricity": 0.0001998,
        "meta_inclination": 0.0288,
        "meta_ra_of_asc_node": 267.9464,
        "meta_arg_of_pericenter": 295.2319,
        "meta_mean_anomaly": 8.5584,
        "meta_ephemeris_type": 0,
        "meta_classification_type": "U",
        "meta_norad_cat_id": 41581,
        "meta_element_set_no": 999,
        "meta_rev_at_epoch": 3489,
        "meta_bstar": 0,
        "meta_mean_motion_dot": -1.27e-06,
        "meta_mean_motion_ddot": 0,
        "tle_line1": "1 41581U 16035A   25354.60374851 -.00000127  00000+0  00000+0 0  9996",
        "tle_line2": "2 41581   0.0288 267.9464 0001998 295.2319   8.5584  1.00271704 34891"
      },
      "geometry": {
        "type": "Point",
        "coordinates": [
          54.1298014270348,
          0.026395596912201415
        ]
      }
    },
    {
      "type": "Feature",
      "properties": {
        "norad_id": 41747,
        "name": "INTELSAT 36 (IS-36)",
        "group": "intelsat",
        "lat": -0.023023758893138836,
        "lon": -142.3329419445399,
        "alt_km": 35788.06763034772,
        "timestamp": "2025-12-21T03:56:50.522248+00:00",
        "meta_object_name": "INTELSAT 36 (IS-36)",
        "meta_object_id": "2016-053A",
        "meta_epoch": "2025-12-20T13:09:38.733408",
        "meta_mean_motion": 1.00271779,
        "meta_eccentricity": 0.000118,
        "meta_inclination": 0.0114,
        "meta_ra_of_asc_node": 2.7331,
        "meta_arg_of_pericenter": 328.9558,
        "meta_mean_anomaly": 23.5927,
        "meta_ephemeris_type": 0,
        "meta_classification_type": "U",
        "meta_norad_cat_id": 41747,
        "meta_element_set_no": 999,
        "meta_rev_at_epoch": 3415,
        "meta_bstar": 0,
        "meta_mean_motion_dot": -1e-08,
        "meta_mean_motion_ddot": 0,
        "tle_line1": "1 41747U 16053A   25354.54836497 -.00000001  00000+0  00000+0 0  9993",
        "tle_line2": "2 41747   0.0114   2.7331 0001180 328.9558  23.5927  1.00271779 34152"
      },
      "geometry": {
        "type": "Point",
        "coordinates": [
          -142.3329419445399,
          -0.023023758893138836
        ]
      }
    },
    {
      "type": "Feature",
      "properties": {
        "norad_id": 41945,
        "name": "INTELSAT 32E (IS-32E)",
        "group": "intelsat",
        "lat": 0.03431437361530552,
        "lon": 106.01766044386405,
        "alt_km": 35785.14613511756,
        "timestamp": "2025-12-21T03:56:50.522259+00:00",
        "meta_object_name": "INTELSAT 32E (IS-32E)",
        "meta_object_id": "2017-007B",
        "meta_epoch": "2025-12-20T16:26:45.777120",
        "meta_mean_motion": 1.00271211,
        "meta_eccentricity": 4.75e-05,
        "meta_inclination": 0.029,
        "meta_ra_of_asc_node": 71.8228,
        "meta_arg_of_pericenter": 338.6559,
        "meta_mean_anomaly": 242.5522,
        "meta_ephemeris_type": 0,
        "meta_classification_type": "U",
        "meta_norad_cat_id": 41945,
        "meta_element_set_no": 999,
        "meta_rev_at_epoch": 3243,
        "meta_bstar": 0,
        "meta_mean_motion_dot": -2.46e-06,
        "meta_mean_motion_ddot": 0,
        "tle_line1": "1 41945U 17007B   25354.68525205 -.00000246  00000+0  00000+0 0  9991",
        "tle_line2": "2 41945   0.0290  71.8228 0000475 338.6559 242.5522  1.00271211 32438"
      },
      "geometry": {
        "type": "Point",
        "coordinates": [
          106.01766044386405,
          0.03431437361530552
        ]
      }
    },
    {
      "type": "Feature",
      "properties": {
        "norad_id": 42818,
        "name": "INTELSAT 35E (IS-35E)",
        "group": "intelsat",
        "lat": 0.042184201830953755,
        "lon": 114.69231705524551,
        "alt_km": 35793.57950799499,
        "timestamp": "2025-12-21T03:56:50.522270+00:00",
        "meta_object_name": "INTELSAT 35E (IS-35E)",
        "meta_object_id": "2017-041A",
        "meta_epoch": "2025-12-20T18:12:08.453952",
        "meta_mean_motion": 1.00270957,
        "meta_eccentricity": 0.0001844,
        "meta_inclination": 0.0175,
        "meta_ra_of_asc_node": 22.7237,
        "meta_arg_of_pericenter": 249.734,
        "meta_mean_anomaly": 55.6772,
        "meta_ephemeris_type": 0,
        "meta_classification_type": "U",
        "meta_norad_cat_id": 42818,
        "meta_element_set_no": 999,
        "meta_rev_at_epoch": 3102,
        "meta_bstar": 0,
        "meta_mean_motion_dot": -2.15e-06,
        "meta_mean_motion_ddot": 0,
        "tle_line1": "1 42818U 17041A   25354.75843118 -.00000215  00000+0  00000+0 0  9999",
        "tle_line2": "2 42818   0.0175  22.7237 0001844 249.7340  55.6772  1.00270957 31026"
      },
      "geometry": {
        "type": "Point",
        "coordinates": [
          114.69231705524551,
          0.042184201830953755
        ]
      }
    },
    {
      "type": "Feature",
      "properties": {
        "norad_id": 42950,
        "name": "INTELSAT 37E (IS-37E)",
        "group": "intelsat",
        "lat": 0.03802820512432358,
        "lon": 131.15457185216835,
        "alt_km": 35793.96009466677,
        "timestamp": "2025-12-21T03:56:50.522281+00:00",
        "meta_object_name": "INTELSAT 37E (IS-37E)",
        "meta_object_id": "2017-059A",
        "meta_epoch": "2025-12-20T18:16:53.001120",
        "meta_mean_motion": 1.00270832,
        "meta_eccentricity": 0.0002954,
        "meta_inclination": 0.0183,
        "meta_ra_of_asc_node": 15.0674,
        "meta_arg_of_pericenter": 243.3658,
        "meta_mean_anomaly": 87.3719,
        "meta_ephemeris_type": 0,
        "meta_classification_type": "U",
        "meta_norad_cat_id": 42950,
        "meta_element_set_no": 999,
        "meta_rev_at_epoch": 3027,
        "meta_bstar": 0,
        "meta_mean_motion_dot": -1.17e-06,
        "meta_mean_motion_ddot": 0,
        "tle_line1": "1 42950U 17059A   25354.76172455 -.00000117  00000+0  00000+0 0  9996",
        "tle_line2": "2 42950   0.0183  15.0674 0002954 243.3658  87.3719  1.00270832 30278"
      },
      "geometry": {
        "type": "Point",
        "coordinates": [
          131.15457185216835,
          0.03802820512432358
        ]
      }
    },
    {
      "type": "Feature",
      "properties": {
        "norad_id": 43632,
        "name": "AZERSPACE 2 (IS-38)",
        "group": "intelsat",
        "lat": -0.00816045772246485,
        "lon": -165.71077069423313,
        "alt_km": 35785.02557379084,
        "timestamp": "2025-12-21T03:56:50.522291+00:00",
        "meta_object_name": "AZERSPACE 2 (IS-38)",
        "meta_object_id": "2018-074A",
        "meta_epoch": "2025-12-20T17:47:21.490944",
        "meta_mean_motion": 1.0027107,
        "meta_eccentricity": 0.000116,
        "meta_inclination": 0.0009,
        "meta_ra_of_asc_node": 355.7052,
        "meta_arg_of_pericenter": 274.3723,
        "meta_mean_anomaly": 131.4463,
        "meta_ephemeris_type": 0,
        "meta_classification_type": "U",
        "meta_norad_cat_id": 43632,
        "meta_element_set_no": 999,
        "meta_rev_at_epoch": 2665,
        "meta_bstar": 0,
        "meta_mean_motion_dot": 1.6e-06,
        "meta_mean_motion_ddot": 0,
        "tle_line1": "1 43632U 18074A   25354.74122096  .00000160  00000+0  00000+0 0  9993",
        "tle_line2": "2 43632   0.0009 355.7052 0001160 274.3723 131.4463  1.00271070 26651"
      },
      "geometry": {
        "type": "Point",
        "coordinates": [
          -165.71077069423313,
          -0.00816045772246485
        ]
      }
    },
    {
      "type": "Feature",
      "properties": {
        "norad_id": 43633,
        "name": "HORIZONS-3E",
        "group": "intelsat",
        "lat": 0.006510623243434476,
        "lon": -41.84008500648635,
        "alt_km": 35783.58334500751,
        "timestamp": "2025-12-21T03:56:50.522301+00:00",
        "meta_object_name": "HORIZONS-3E",
        "meta_object_id": "2018-074B",
        "meta_epoch": "2025-12-20T14:02:03.988032",
        "meta_mean_motion": 1.00269138,
        "meta_eccentricity": 7.67e-05,
        "meta_inclination": 0.009,
        "meta_ra_of_asc_node": 233.4534,
        "meta_arg_of_pericenter": 88.2799,
        "meta_mean_anomaly": 147.176,
        "meta_ephemeris_type": 0,
        "meta_classification_type": "U",
        "meta_norad_cat_id": 43633,
        "meta_element_set_no": 999,
        "meta_rev_at_epoch": 2655,
        "meta_bstar": 0,
        "meta_mean_motion_dot": 0,
        "meta_mean_motion_ddot": 0,
        "tle_line1": "1 43633U 18074B   25354.58476838  .00000000  00000+0  00000+0 0  9995",
        "tle_line2": "2 43633   0.0090 233.4534 0000767  88.2799 147.1760  1.00269138 26551"
      },
      "geometry": {
        "type": "Point",
        "coordinates": [
          -41.84008500648635,
          0.006510623243434476
        ]
      }
    }
  ]
}